[{"OBJECT_NAME":"STARLINK-37199","OBJECT_ID":"2026-059G","EPOCH":"2026-04-05T04:15:25.918848","MEAN_MOTION":15.81006905,"ECCENTRICITY":6.927e-5,"INCLINATION":53.1611,"RA_OF_ASC_NODE":230.0929,"ARG_OF_PERICENTER":177.3783,"MEAN_ANOMALY":182.7244,"EPHEMERIS_TYPE":0,"CLASSIFICATION_TYPE":"U","NORAD_CAT_ID":68327,"ELEMENT_SET_NO":999,"REV_AT_EPOCH":216,"BSTAR":0.0018850086,"MEAN_MOTION_DOT":0.00391117,"MEAN_MOTION_DDOT":0},{"OBJECT_NAME":"STARLINK-36245","OBJECT_ID":"2026-059H","EPOCH":"2026-04-05T04:13:16.212576","MEAN_MOTION":15.81042169,"ECCENTRICITY":5.516e-5,"INCLINATION":53.16,"RA_OF_ASC_NODE":230.0824,"ARG_OF_PERICENTER":100.3078,"MEAN_ANOMALY":259.8007,"EPHEMERIS_TYPE":0,"CLASSIFICATION_TYPE":"U","NORAD_CAT_ID":68328,"ELEMENT_SET_NO":999,"REV_AT_EPOCH":216,"BSTAR":0.0024800489,"MEAN_MOTION_DOT":0.00523786,"MEAN_MOTION_DDOT":0},{"OBJECT_NAME":"STARLINK-37204","OBJECT_ID":"2026-059J","EPOCH":"2026-04-05T04:14:21.492096","MEAN_MOTION":15.81023093,"ECCENTRICITY":2.392e-5,"INCLINATION":53.1598,"RA_OF_ASC_NODE":230.0875,"ARG_OF_PERICENTER":159.4068,"MEAN_ANOMALY":200.6965,"EPHEMERIS_TYPE":0,"CLASSIFICATION_TYPE":"U","NORAD_CAT_ID":68329,"ELEMENT_SET_NO":999,"REV_AT_EPOCH":216,"BSTAR":0.00255707,"MEAN_MOTION_DOT":0.00540713,"MEAN_MOTION_DDOT":0},{"OBJECT_NAME":"STARLINK-37001","OBJECT_ID":"2026-059K","EPOCH":"2026-04-05T05:43:14.138112","MEAN_MOTION":15.80946266,"ECCENTRICITY":7.787e-5,"INCLINATION":53.1606,"RA_OF_ASC_NODE":229.7611,"ARG_OF_PERICENTER":349.8322,"MEAN_ANOMALY":10.2685,"EPHEMERIS_TYPE":0,"CLASSIFICATION_TYPE":"U","NORAD_CAT_ID":68330,"ELEMENT_SET_NO":999,"REV_AT_EPOCH":217,"BSTAR":0.0014403045,"MEAN_MOTION_DOT":0.00294476,"MEAN_MOTION_DDOT":0},{"OBJECT_NAME":"STARLINK-36932","OBJECT_ID":"2026-059L","EPOCH":"2026-04-05T05:42:09.084960","MEAN_MOTION":15.80945196,"ECCENTRICITY":2.606e-5,"INCLINATION":53.1602,"RA_OF_ASC_NODE":229.7554,"ARG_OF_PERICENTER":83.512,"MEAN_ANOMALY":276.5932,"EPHEMERIS_TYPE":0,"CLASSIFICATION_TYPE":"U","NORAD_CAT_ID":68331,"ELEMENT_SET_NO":999,"REV_AT_EPOCH":217,"BSTAR":0.0016604833,"MEAN_MOTION_DOT":0.00341482,"MEAN_MOTION_DDOT":0},{"OBJECT_NAME":"STARLINK-37205","OBJECT_ID":"2026-059M","EPOCH":"2026-04-05T05:41:04.059456","MEAN_MOTION":15.80937522,"ECCENTRICITY":4.888e-5,"INCLINATION":53.1603,"RA_OF_ASC_NODE":229.7507,"ARG_OF_PERICENTER":15.6177,"MEAN_ANOMALY":344.486,"EPHEMERIS_TYPE":0,"CLASSIFICATION_TYPE":"U","NORAD_CAT_ID":68332,"ELEMENT_SET_NO":999,"REV_AT_EPOCH":217,"BSTAR":0.0014594566,"MEAN_MOTION_DOT":0.00298426,"MEAN_MOTION_DDOT":0},{"OBJECT_NAME":"STARLINK-37180","OBJECT_ID":"2026-059N","EPOCH":"2026-04-05T05:39:59.044320","MEAN_MOTION":15.80943696,"ECCENTRICITY":0.00012417,"INCLINATION":53.1603,"RA_OF_ASC_NODE":229.7456,"ARG_OF_PERICENTER":9.4791,"MEAN_ANOMALY":350.6255,"EPHEMERIS_TYPE":0,"CLASSIFICATION_TYPE":"U","NORAD_CAT_ID":68333,"ELEMENT_SET_NO":999,"REV_AT_EPOCH":217,"BSTAR":0.001478386,"MEAN_MOTION_DOT":0.00302525,"MEAN_MOTION_DDOT":0},{"OBJECT_NAME":"STARLINK-37191","OBJECT_ID":"2026-059P","EPOCH":"2026-04-05T05:38:54.252096","MEAN_MOTION":15.80918214,"ECCENTRICITY":3.722e-5,"INCLINATION":53.1603,"RA_OF_ASC_NODE":229.7398,"ARG_OF_PERICENTER":179.6186,"MEAN_ANOMALY":180.4838,"EPHEMERIS_TYPE":0,"CLASSIFICATION_TYPE":"U","NORAD_CAT_ID":68334,"ELEMENT_SET_NO":999,"REV_AT_EPOCH":217,"BSTAR":0.0011899726,"MEAN_MOTION_DOT":0.00241354,"MEAN_MOTION_DDOT":0},{"OBJECT_NAME":"STARLINK-37217","OBJECT_ID":"2026-059Q","EPOCH":"2026-04-05T05:37:48.850752","MEAN_MOTION":15.80931454,"ECCENTRICITY":5.72e-5,"INCLINATION":53.16,"RA_OF_ASC_NODE":229.7349,"ARG_OF_PERICENTER":16.6181,"MEAN_ANOMALY":343.486,"EPHEMERIS_TYPE":0,"CLASSIFICATION_TYPE":"U","NORAD_CAT_ID":68335,"ELEMENT_SET_NO":999,"REV_AT_EPOCH":217,"BSTAR":0.0013082261,"MEAN_MOTION_DOT":0.00266348,"MEAN_MOTION_DDOT":0},{"OBJECT_NAME":"STARLINK-37143","OBJECT_ID":"2026-059R","EPOCH":"2026-04-05T02:34:41.326464","MEAN_MOTION":15.80995361,"ECCENTRICITY":0.0002238,"INCLINATION":53.1599,"RA_OF_ASC_NODE":230.3637,"ARG_OF_PERICENTER":80.448,"MEAN_ANOMALY":279.6796,"EPHEMERIS_TYPE":0,"CLASSIFICATION_TYPE":"U","NORAD_CAT_ID":68336,"ELEMENT_SET_NO":999,"REV_AT_EPOCH":215,"BSTAR":0.002492074,"MEAN_MOTION_DOT":0.00525197,"MEAN_MOTION_DDOT":0},{"OBJECT_NAME":"STARLINK-36237","OBJECT_ID":"2026-059S","EPOCH":"2026-04-05T05:35:39.790752","MEAN_MOTION":15.80959182,"ECCENTRICITY":5.336e-5,"INCLINATION":53.1603,"RA_OF_ASC_NODE":229.7251,"ARG_OF_PERICENTER":76.0354,"MEAN_ANOMALY":284.0728,"EPHEMERIS_TYPE":0,"CLASSIFICATION_TYPE":"U","NORAD_CAT_ID":68337,"ELEMENT_SET_NO":999,"REV_AT_EPOCH":217,"BSTAR":0.0011642482,"MEAN_MOTION_DOT":0.00236429,"MEAN_MOTION_DDOT":0},{"OBJECT_NAME":"STARLINK-36254","OBJECT_ID":"2026-059T","EPOCH":"2026-04-05T04:00:01.999584","MEAN_MOTION":15.80880616,"ECCENTRICITY":0.00015985,"INCLINATION":53.1596,"RA_OF_ASC_NODE":230.0401,"ARG_OF_PERICENTER":126.9186,"MEAN_ANOMALY":223.4781,"EPHEMERIS_TYPE":0,"CLASSIFICATION_TYPE":"U","NORAD_CAT_ID":68338,"ELEMENT_SET_NO":999,"REV_AT_EPOCH":329,"BSTAR":0.00078223001,"MEAN_MOTION_DOT":0.00156574,"MEAN_MOTION_DDOT":0},{"OBJECT_NAME":"STARLINK-37200","OBJECT_ID":"2026-059U","EPOCH":"2026-04-05T04:00:01.999584","MEAN_MOTION":15.80882467,"ECCENTRICITY":0.00012966,"INCLINATION":53.1599,"RA_OF_ASC_NODE":230.049,"ARG_OF_PERICENTER":55.9587,"MEAN_ANOMALY":290.2338,"EPHEMERIS_TYPE":0,"CLASSIFICATION_TYPE":"U","NORAD_CAT_ID":68339,"ELEMENT_SET_NO":999,"REV_AT_EPOCH":329,"BSTAR":0.00032939989,"MEAN_MOTION_DOT":0.00064832,"MEAN_MOTION_DDOT":0},{"OBJECT_NAME":"STARLINK-37185","OBJECT_ID":"2026-059V","EPOCH":"2026-04-05T04:00:01.999584","MEAN_MOTION":15.80894434,"ECCENTRICITY":7.763e-5,"INCLINATION":53.1597,"RA_OF_ASC_NODE":230.0311,"ARG_OF_PERICENTER":71.4249,"MEAN_ANOMALY":283.3083,"EPHEMERIS_TYPE":0,"CLASSIFICATION_TYPE":"U","NORAD_CAT_ID":68340,"ELEMENT_SET_NO":999,"REV_AT_EPOCH":329,"BSTAR":0.00025164573,"MEAN_MOTION_DOT":0.000493,"MEAN_MOTION_DDOT":0},{"OBJECT_NAME":"STARLINK-37181","OBJECT_ID":"2026-059W","EPOCH":"2026-04-05T04:00:01.999584","MEAN_MOTION":15.80892179,"ECCENTRICITY":0.00012086,"INCLINATION":53.1598,"RA_OF_ASC_NODE":230.0224,"ARG_OF_PERICENTER":113.9495,"MEAN_ANOMALY":245.0616,"EPHEMERIS_TYPE":0,"CLASSIFICATION_TYPE":"U","NORAD_CAT_ID":68341,"ELEMENT_SET_NO":999,"REV_AT_EPOCH":329,"BSTAR":0.00022371582,"MEAN_MOTION_DOT":0.00043718,"MEAN_MOTION_DDOT":0},{"OBJECT_NAME":"STARLINK-37192","OBJECT_ID":"2026-059X","EPOCH":"2026-04-05T04:00:01.999584","MEAN_MOTION":15.80904122,"ECCENTRICITY":7.283e-5,"INCLINATION":53.1596,"RA_OF_ASC_NODE":230.0047,"ARG_OF_PERICENTER":14.3042,"MEAN_ANOMALY":353.2425,"EPHEMERIS_TYPE":0,"CLASSIFICATION_TYPE":"U","NORAD_CAT_ID":68342,"ELEMENT_SET_NO":999,"REV_AT_EPOCH":329,"BSTAR":0.00014114443,"MEAN_MOTION_DOT":0.00027286,"MEAN_MOTION_DDOT":0}]
